CIC_OEM_VERS = 2.0
CREATION_DATE = 2025-06-13T14:22:08.919606
ORIGINATOR = ISAE-SUPAERO


META_START
OBJECT_NAME = RED2
OBJECT_ID = RED2
CENTER_NAME = Earth
REF_FRAME = EME2000
TIME_SYSTEM = UTC
START_TIME = 2025-06-13T00:00:00.000
USEABLE_START_TIME = 2025-06-13T00:00:00.000
USEABLE_STOP_TIME = 2025-06-13T23:55:00.000
STOP_TIME = 2025-06-13T23:55:00.000
INTERPOLATION = lagrange
INTERPOLATION_DEGREE = 5
META_STOP



60839 0.0 482.54947 -3083.0711 -6252.414900000001 -3.2622875 5.973122900000001 -3.2288649
60839 420.0 -889.93515 -348.68636 -6931.594 -3.1615878 6.824157100000001 0.047327802
60839 840.0 -2083.8318 2455.9472 -6215.2182 -2.4266123 6.3033093000000004 3.3055781000000004
60839 1260.0 -2859.2431 4767.2425 -4247.7072 -1.2017009 4.5131743 5.9047789
60839 1680.0 -3057.9361000000004 6116.778200000001 -1421.794 0.27355969 1.7993679 7.321297400000001
60839 2100.0 -2635.8104 6224.2618 1692.7635 1.7034139000000001 -1.3000685 7.2521343
60839 2520.0 -1675.0248000000001 5059.5157 4459.7203 2.7929497999999997 -4.1522709 5.6917968000000005
60839 2940.0 -370.12422 2855.035 6307.0549 3.3122901000000002 -6.1626384 2.9484551000000003
60839 3360.0 1010.9875000000001 61.565766 6848.850200000001 3.1486488 -6.905997800000001 -0.41577754
60839 3780.0 2182.646 -2744.4315 5968.7487 2.3319434 -6.2198497 -3.7020805
60839 4200.0 2901.494 -4981.0469 3847.2862000000005 1.0308206 -4.2428731 -6.2212068
60839 4620.0 3018.8197999999998 -6185.136 925.82334 -0.48092759 -1.3918367 -7.4439235
60839 5040.0 2512.7369 -6112.188099999999 -2187.9934 -1.8849522 1.729085 -7.1237491
60839 5460.0 1491.4485 -4786.3631 -4853.0814 -2.8923447 4.4704763000000005 -5.3491726
60839 5880.0 166.88977 -2487.9111000000003 -6530.7198 -3.305947 6.2836571999999995 -2.5056229
60839 6300.0 -1191.5662 312.36454 -6889.1891 -3.0524754 6.8226522 0.82561969
60839 6720.0 -2310.9193 3050.0671 -5861.2677 -2.1866261 5.9913384 3.9860834
60839 7140.0 -2965.8417000000004 5174.6483 -3652.7194 -0.8774325300000001 3.9505512 6.3523021
60839 7560.0 -3021.6708 6253.7717 -705.07046 0.617947 1.0961208999999998 7.4427464
60839 7980.0 -2463.0362000000005 6060.9619 2385.5719 1.9975966 -2.0018459 7.017905600000001
60839 8400.0 -1400.343 4627.5414 4985.9363 2.9752954 -4.7071125 5.146145400000001
60839 8820.0 -49.682992 2242.1528 6557.1368 3.3438069 -6.4537154 2.2022203
60839 9240.0 1311.0709 -606.12075 6769.9901 3.0217095 -6.8708749 -1.2082257
60839 9660.0 2400.0937000000004 -3328.6162000000004 5576.5538 2.0723379 -5.8643024 -4.3750387
60839 10080.0 2991.1733 -5360.5382 3223.1447000000003 0.6929341600000001 -3.641216 -6.6329497
60839 10500.0 2962.5235000000002 -6281.9586 199.79718 -0.82568398 -0.67176315 -7.5091249
60839 10920.0 2322.9672 -5908.1996 -2865.6022000000003 -2.1646937 2.4161051000000002 -6.8331037
60839 11340.0 1208.0474 -4325.784799999999 -5344.2717999999995 -3.0511069 4.9846668 -4.768360899999999
60839 11760.0 -152.08123 -1866.035 -6737.5605000000005 -3.3141062000000003 6.5252928 -1.7558152
60839 12180.0 -1481.8281000000002 969.6735500000001 -6771.5824 -2.9100528 6.7473139 1.5949654
60839 12600.0 -2514.2052000000003 3610.8073 -5443.111900000001 -1.9216965000000001 5.6142981 4.6239429
60839 13020.0 -3040.8232000000003 5525.425 -3017.3069 -0.54157936 3.3441917 6.7309342
60839 13440.0 -2952.2769 6322.0037999999995 19.804103 0.95775956 0.37997959 7.4820161
60839 13860.0 -2262.4164 5830.7166 3052.127 2.2715781 -2.6820697 6.704951
60839 14280.0 -1108.9363 4144.3603 5456.5323 3.1257974 -5.2098249999999995 4.5419416
60839 14700.0 272.77288 1604.6157 6733.5702 3.3383751000000004 -6.6727369 1.4302735
60839 15120.0 1597.9388000000001 -1266.599 6614.6997 2.8605054 -6.7587712 -1.9878496
60839 15540.0 2591.7972999999997 -3875.0793 5121.1408 1.7884406 -5.4431025 -4.998999700000001
60839 15960.0 3047.9782000000005 -5679.6777 2562.274 0.34602226 -2.9994546 -6.969867900000001
60839 16380.0 2873.1654 -6308.5815999999995 -528.91188 -1.1623405 0.054308728 -7.4900709
60839 16800.0 2106.8121 -5638.8805 -3511.7397 -2.4214279000000003 3.0745871000000005 -6.4670060000000005
60839 17220.0 910.1635200000001 -3817.9531 -5776.8715999999995 -3.177213 5.442931 -4.135951200000001
60839 17640.0 -470.94512000000003 -1224.1203 -6870.8605 -3.286591 6.6954711 -0.98739562
60839 18060.0 -1757.5553 1616.1466 -6580.1425 -2.7356838 6.5987399 2.3471438
60839 18480.0 -2691.3939 4131.9867 -4965.3998 -1.6345645 5.1759200000000005 5.2119710999999995
60839 18900.0 -3083.265 5815.5707999999995 -2348.6742000000004 -0.19784247 2.7006556 7.0359577
60839 19320.0 -2850.4593 6320.6285 744.42572 1.2890716 -0.34087680000000004 7.438197000000001
60839 19740.0 -2036.2219 5536.1518 3684.5424 2.5219673 -3.3327317 6.3166503
60839 20160.0 -804.26023 3615.6015 5865.8559000000005 3.2423401 -5.6543892 3.8862788999999998
60839 20580.0 593.30449 949.89698 6834.2047 3.2958402 -6.8170694 0.64181931
60839 21000.0 1868.0003000000002 -1912.0914 6384.8150000000005 2.6668337 -6.5709512000000005 -2.7452503999999998
60839 21420.0 2755.2938 -4377.4002 4607.996700000001 1.4837196 -4.9613095000000005 -5.5662755
60839 21840.0 3071.1339 -5934.8229 1872.7094 -0.0055116663 -2.3255277000000003 -7.2277947000000005
60839 22260.0 2751.8146 -6264.9905 -1251.4703000000002 -1.4867086999999999 0.77741759 -7.387193900000001
60839 22680.0 1866.9013 -5307.8096 -4118.680600000001 -2.6520145000000004 3.696711 -6.0301036
60839 23100.0 601.44058 -3269.228 -6145.785 -3.2690744 5.8401029 -3.4596028000000003
60839 23520.0 -785.76962 -569.9825999999999 -6929.0954 -3.223627 6.7924961 -0.20942202000000001
60839 23940.0 -2015.2774 2244.016 -6317.130400000001 -2.5312959999999998 6.3788228 3.0734511
60839 24360.0 -2840.121 4607.342 -4433.7128 -1.3284867999999999 4.681393 5.7433187
60839 24780.0 -3092.3459 6041.5407000000005 -1654.6332 0.14979367 2.0275041000000003 7.2638146
60839 25200.0 -2717.0884 6249.5149 1460.3362 1.6079289 -1.0579802 7.3118103
60839 25620.0 -1786.8193999999999 5180.5975 4275.4596 2.7457566000000004 -3.9461063 5.8576440000000005
60839 26040.0 -489.59634000000005 3047.3889 6209.2143 3.3236499 -6.0354925999999995 3.186962
60839 26460.0 908.47025 285.63951000000003 6857.9977 3.2166796 -6.8848719 -0.15380815
60839 26880.0 2118.375 -2535.011 6083.2609 2.4428498 -6.309571200000001 -3.4712289000000003
60839 27300.0 2888.8902000000003 -4829.7417000000005 4043.5245 1.1615621 -4.4249823 -6.069858
60839 27720.0 3060.4888 -6123.2662 1162.9894 -0.35785594 -1.6279101 -7.4037924
60839 28140.0 2599.8969 -6152.1446 -1959.0648999999999 -1.795183 1.4888848000000001 -7.2021189
60839 28560.0 1605.9817 -4919.3154 -4679.2088 -2.8539075 4.2754045 -5.5281288
60839 28980.0 285.3601 -2686.3141 -6446.8022 -3.3258036000000004 6.172151 -2.747553
60839 29400.0 -1093.0566000000001 88.720712 -6911.7080000000005 -3.1259891 6.815868099999999 0.56923699
60839 29820.0 -2252.1232999999997 2846.1245 -5985.5866 -2.2990509 6.090400400000001 3.7658359
60839 30240.0 -2958.6577 5031.540900000001 -3854.062 -1.0066684000000001 4.1364401 6.212108100000001
60839 30660.0 -3067.8116 6200.8516 -943.01485 0.49761931 1.3324034999999999 7.4118981
60839 31080.0 -2553.4487999999997 6109.5948 2159.4375 1.9108610000000001 -1.7629896 7.1042972
60839 31500.0 -1516.7433999999998 4768.2682 4818.2172 2.9405419999999998 -4.5152133999999995 5.3331732
60839 31920.0 -168.20693 2446.3121 6482.7481 3.3687067 -6.3489876999999995 2.4518534
60839 32340.0 1214.916 -380.56939 6804.6832 3.1015167999999997 -6.875643500000001 -0.94759804
60839 32760.0 2346.309 -3128.395 5713.4439 2.1907354999999997 -5.978074899999999 -4.15767
60839 33180.0 2990.9946 -5227.2488 3433.9653 0.8252470100000001 -3.8404657 -6.5046074
60839 33600.0 3015.9633 -6243.153200000001 440.73015000000004 -0.70722616 -0.9143305500000001 -7.496517300000001
60839 34020.0 2418.8187000000003 -5971.4735 -2644.3845 -2.0846989 2.1811754000000003 -6.9376147
60839 34440.0 1326.4542 -4477.5858 -5187.8374 -3.0254287 4.8051921 -4.9667486
60839 34860.0 -35.264873 -2075.1348000000003 -6677.1777 -3.3470823000000003 6.4363345 -2.0069303
60839 35280.0 -1390.1203 745.51707 -6819.0339 -2.9945726 6.7656973 1.341221
60839 35700.0 -2466.0112000000004 3416.6277999999998 -5588.8133 -2.0409107 5.7363289 4.417707
60839 36120.0 -3045.9421 5400.463400000001 -3232.1657999999998 -0.67195744 3.5463367 6.6136086
60839 36540.0 -3009.9134 6292.001200000001 -220.93131 0.8423817800000001 0.6222997100000001 7.478497900000001
60839 36960.0 -2361.0871 5902.3413 2834.6473 2.195053 -2.4489666000000003 6.817524400000001
60839 37380.0 -1228.564 4303.3243 5307.2154 3.1043629 -5.034419 4.7483561
60839 37800.0 156.79055 1818.3865 6683.5261 3.3769234000000004 -6.5918451 1.6882851
60839 38220.0 1509.6036000000001 -1042.1145000000001 6674.590700000001 2.9513345 -6.789661199999999 -1.7316047
60839 38640.0 2549.4817000000003 -3686.4409 5278.8186 1.9128809000000002 -5.5799259 -4.797904000000001
60839 39060.0 3060.5152000000003 -5566.1053 2785.107 0.47811988000000005 -3.2136806 -6.8662589
60839 39480.0 2937.8943 -6293.500900000001 -287.21022 -1.0503297 -0.19203755 -7.505274900000001
60839 39900.0 2210.1877000000004 -5724.9685 -3301.0241 -2.352545 2.8476126 -6.5964277000000004
60839 40320.0 1030.8682 -3987.0817 -5639.9092 -3.16487 5.2811336 -4.351446
60839 40740.0 -357.43303000000003 -1441.712 -6834.933599999999 -3.3324868000000003 6.6302159000000005 -1.2447972
60839 41160.0 -1674.0625 1393.9361000000001 -6652.1795 -2.8302897 6.6423133 2.0990824
60839 41580.0 -2654.7031 3949.7983 -5130.9265000000005 -1.7590814000000001 5.3198113000000005 5.0223918
60839 42000.0 -3100.8819 5710.2924 -2574.5437 -0.32753382 2.9168959 6.943276300000001
60839 42420.0 -2919.0131 6314.0123 503.88085 1.1804348 -0.09538333900000001 7.462463
60839 42840.0 -2141.8999 5629.9731 3478.5532000000003 2.4570043 -3.1083943 6.4542364
60839 43260.0 -925.42803 3790.8437000000004 5736.9714 3.2349027 -5.4978974 4.109465
60839 43680.0 481.63802000000004 1170.5465 6809.2255000000005 3.347758 -6.7612076 0.9047444000000001
